[{"OBJECT_NAME":"STARLINK-34411","OBJECT_ID":"2025-192L","EPOCH":"2026-03-09T22:00:01.999584","MEAN_MOTION":15.87096249,"ECCENTRICITY":0.00112731,"INCLINATION":53.1366,"RA_OF_ASC_NODE":218.8103,"ARG_OF_PERICENTER":288.4829,"MEAN_ANOMALY":341.4373,"EPHEMERIS_TYPE":0,"CLASSIFICATION_TYPE":"U","NORAD_CAT_ID":65414,"ELEMENT_SET_NO":999,"REV_AT_EPOCH":591,"BSTAR":0.0014738346,"MEAN_MOTION_DOT":0.00410675,"MEAN_MOTION_DDOT":0},{"OBJECT_NAME":"STARLINK-36976","OBJECT_ID":"2026-041AC","EPOCH":"2026-03-09T22:00:01.999584","MEAN_MOTION":15.94520916,"ECCENTRICITY":5.248e-5,"INCLINATION":53.1591,"RA_OF_ASC_NODE":60.9761,"ARG_OF_PERICENTER":97.2103,"MEAN_ANOMALY":290.2929,"EPHEMERIS_TYPE":0,"CLASSIFICATION_TYPE":"U","NORAD_CAT_ID":68066,"ELEMENT_SET_NO":999,"REV_AT_EPOCH":241,"BSTAR":-0.0040688559,"MEAN_MOTION_DOT":-0.01572015,"MEAN_MOTION_DDOT":0.00071491235}]
